[{"OBJECT_NAME":"TIANQI-16","OBJECT_ID":"2025-105A","EPOCH":"2026-03-09T12:21:56.157984","MEAN_MOTION":13.99115329,"ECCENTRICITY":0.0012645,"INCLINATION":44.9833,"RA_OF_ASC_NODE":105.8163,"ARG_OF_PERICENTER":266.1357,"MEAN_ANOMALY":93.803,"EPHEMERIS_TYPE":0,"CLASSIFICATION_TYPE":"U","NORAD_CAT_ID":64058,"ELEMENT_SET_NO":999,"REV_AT_EPOCH":4123,"BSTAR":0.00015431,"MEAN_MOTION_DOT":9.7e-7,"MEAN_MOTION_DDOT":0},{"OBJECT_NAME":"SCOUT A R\/B","OBJECT_ID":"1966-041B","EPOCH":"2026-03-09T22:37:14.476224","MEAN_MOTION":14.01073615,"ECCENTRICITY":0.00756432,"INCLINATION":90.218,"RA_OF_ASC_NODE":80.0991,"ARG_OF_PERICENTER":274.9485,"MEAN_ANOMALY":84.3062,"EPHEMERIS_TYPE":0,"CLASSIFICATION_TYPE":"U","NORAD_CAT_ID":2180,"ELEMENT_SET_NO":999,"REV_AT_EPOCH":4937,"BSTAR":0.00016298893,"MEAN_MOTION_DOT":2.59e-6,"MEAN_MOTION_DDOT":0}]
